[{"OBJECT_NAME":"STARLINK-35439","OBJECT_ID":"2025-259K","EPOCH":"2026-03-09T22:47:37.272480","MEAN_MOTION":15.27602329,"ECCENTRICITY":0.00011733,"INCLINATION":43.0027,"RA_OF_ASC_NODE":272.6558,"ARG_OF_PERICENTER":24.4646,"MEAN_ANOMALY":335.6262,"EPHEMERIS_TYPE":0,"CLASSIFICATION_TYPE":"U","NORAD_CAT_ID":66431,"ELEMENT_SET_NO":999,"REV_AT_EPOCH":1953,"BSTAR":0.0011824295,"MEAN_MOTION_DOT":0.00032441,"MEAN_MOTION_DDOT":0},{"OBJECT_NAME":"KUIPER-00184","OBJECT_ID":"2025-301G","EPOCH":"2026-03-09T22:00:01.999584","MEAN_MOTION":15.32782365,"ECCENTRICITY":0.00116958,"INCLINATION":51.8667,"RA_OF_ASC_NODE":64.5953,"ARG_OF_PERICENTER":53.2996,"MEAN_ANOMALY":333.7065,"EPHEMERIS_TYPE":0,"CLASSIFICATION_TYPE":"U","NORAD_CAT_ID":67139,"ELEMENT_SET_NO":999,"REV_AT_EPOCH":554,"BSTAR":-0.036844053,"MEAN_MOTION_DOT":-0.01088594,"MEAN_MOTION_DDOT":0}]
